ICEYE-X39               
1 60546U 24149CG  26158.73698260  .00003633  00000+0  29808-3 0  9998
2 60546  97.6761 235.8902 0004306 143.0759 217.0761 14.99840037 98703
UMBRA-10                
1 60547U 24149CH  26158.70605822  .00016843  00000+0  83628-3 0  9995
2 60547  97.6973 245.7790 0001204  73.4373 286.6992 15.17759548 99296
ICEYE-X33               
1 60548U 24149CJ  26158.76891162  .00004365  00000+0  34778-3 0  9994
2 60548  97.7247 237.9629 0001464 110.0801 250.0581 15.00877179 98794
ICEYE-X40               
1 60549U 24149CK  26158.75007377  .00001524  00000+0  13428-3 0  9994
2 60549  97.6802 235.3975 0006203 108.6641 251.5255 14.97904319 98660
SATELIOT_1              
1 60550U 24149CL  26158.74204600  .00002492  00000+0  21570-3 0  9995
2 60550  97.6735 234.7975 0007790 107.0221 253.1855 14.98026114 98651
BRO-14                  
1 60551U 24149CM  26158.76538970  .00001449  00000+0  13373-3 0  9991
2 60551  97.6877 234.7122 0008149 122.2658 237.9354 14.96157407 98589
SATELIOT_3              
1 60552U 24149CN  26158.18338566  .00001938  00000+0  16894-3 0  9991
2 60552  97.6827 235.0308 0006443 108.9207 251.2715 14.98022503 98581
BRO-15                  
1 60553U 24149CP  26158.21262902  .00001237  00000+0  11497-3 0  9992
2 60553  97.6802 233.7804 0009433 118.0878 242.1298 14.96117982 98511
UM5-RIBAT               
1 60554U 24149CQ  26158.73955728  .00003502  00000+0  27878-3 0  9992
2 60554  97.6636 236.6674 0003865  76.6204 283.5451 15.01024113 98777
UM5-EOSAT               
1 60555U 24149CR  26158.70872714  .00004742  00000+0  37136-3 0  9998
2 60555  97.6676 237.5591 0008545 142.6422 217.5398 15.01456868 98791
LASARSAT                
1 62391U 24247Q   26158.73691323  .00034646  00000+0  70312-3 0  9994
2 62391  44.9756 315.2967 0008334 279.4178  80.5769 15.45777785 81850
CROCUBE                 
1 62394U 24247T   26158.68150948  .00038979  00000+0  74212-3 0  9990
2 62394  44.9730 313.0923 0008194 282.2931  77.7042 15.47580079 81870
TEVEL2-4                
1 63213U 25052D   26158.66121392  .00020438  00000+0  61719-3 0  9994
2 63213  97.3922  55.0407 0004354 120.1889 239.9786 15.34277122 68658
TEVEL2-5                
1 63214U 25052E   26158.68065786  .00020067  00000+0  60926-3 0  9998
2 63214  97.3908  55.0087 0004330 122.9986 237.1673 15.34110180 68654
TEVEL2-6                
1 63215U 25052F   26158.69276507  .00018744  00000+0  57000-3 0  9993
2 63215  97.3913  55.0052 0004389 122.6209 237.5458 15.34073106 68653
TEVEL2-1                
1 63217U 25052H   26158.65328309  .00018446  00000+0  57032-3 0  9993
2 63217  97.3886  54.6013 0004130 131.9709 228.1886 15.33551219 68632
TEVEL2-3                
1 63218U 25052J   26158.64826287  .00018570  00000+0  57316-3 0  9994
2 63218  97.3888  54.6167 0004211 133.1501 227.0094 15.33604146 68636
TEVEL2-2                
1 63219U 25052K   26158.65364845  .00018428  00000+0  56963-3 0  9992
2 63219  97.3887  54.6039 0004151 133.4602 226.6986 15.33558797 68637
TEVEL2-9                
1 63237U 25052AD  26158.68416822  .00016541  00000+0  54354-3 0  9994
2 63237  97.3948  54.0298 0006860 157.6841 202.4700 15.31608376 68574
TEVEL2-7                
1 63238U 25052AE  26158.65792987  .00016703  00000+0  55376-3 0  9996
2 63238  97.3946  53.9238 0006944 158.9298 201.2231 15.31319848 68566
TEVEL2-8                
1 63239U 25052AF  26158.66608190  .00016862  00000+0  55924-3 0  9995
2 63239  97.3959  53.9116 0007088 159.3996 200.7532 15.31303224 68565
FORESAIL-1 PRIME        
1 66778U 25276DS  26158.70613013  .00005419  00000+0  26506-3 0  9999
2 66778  97.4198 232.1512 0003684 123.1787 236.9801 15.18616677 28962
