OBJECT_NAME,OBJECT_ID,EPOCH,MEAN_MOTION,ECCENTRICITY,INCLINATION,RA_OF_ASC_NODE,ARG_OF_PERICENTER,MEAN_ANOMALY,EPHEMERIS_TYPE,CLASSIFICATION_TYPE,NORAD_CAT_ID,ELEMENT_SET_NO,REV_AT_EPOCH,BSTAR,MEAN_MOTION_DOT,MEAN_MOTION_DDOT
ICEYE-X39,2024-149CG,2026-06-07T17:41:15.296640,14.99840037,.0004306,97.6761,235.8902,143.0759,217.0761,0,U,60546,999,9870,.29808E-3,.3633E-4,0
UMBRA-10,2024-149CH,2026-06-07T16:56:43.430208,15.17759548,.0001204,97.6973,245.7790,73.4373,286.6992,0,U,60547,999,9929,.83628E-3,.16843E-3,0
ICEYE-X33,2024-149CJ,2026-06-07T18:27:13.963968,15.00877179,.0001464,97.7247,237.9629,110.0801,250.0581,0,U,60548,999,9879,.34778E-3,.4365E-4,0
ICEYE-X40,2024-149CK,2026-06-07T18:00:06.373728,14.97904319,.0006203,97.6802,235.3975,108.6641,251.5255,0,U,60549,999,9866,.13428E-3,.1524E-4,0
SATELIOT_1,2024-149CL,2026-06-07T17:48:32.774400,14.98026114,.000779,97.6735,234.7975,107.0221,253.1855,0,U,60550,999,9865,.2157E-3,.2492E-4,0
BRO-14,2024-149CM,2026-06-07T18:22:09.670080,14.96157407,.0008149,97.6877,234.7122,122.2658,237.9354,0,U,60551,999,9858,.13373E-3,.1449E-4,0
SATELIOT_3,2024-149CN,2026-06-07T04:24:04.521024,14.98022503,.0006443,97.6827,235.0308,108.9207,251.2715,0,U,60552,999,9858,.16894E-3,.1938E-4,0
BRO-15,2024-149CP,2026-06-07T05:06:11.147328,14.96117982,.0009433,97.6802,233.7804,118.0878,242.1298,0,U,60553,999,9851,.11497E-3,.1237E-4,0
UM5-RIBAT,2024-149CQ,2026-06-07T17:44:57.748992,15.01024113,.0003865,97.6636,236.6674,76.6204,283.5451,0,U,60554,999,9877,.27878E-3,.3502E-4,0
UM5-EOSAT,2024-149CR,2026-06-07T17:00:34.024896,15.01456868,.0008545,97.6676,237.5591,142.6422,217.5398,0,U,60555,999,9879,.37136E-3,.4742E-4,0
LASARSAT,2024-247Q,2026-06-07T17:41:09.303072,15.45777785,.0008334,44.9756,315.2967,279.4178,80.5769,0,U,62391,999,8185,.70312E-3,.34646E-3,0
CROCUBE,2024-247T,2026-06-07T16:21:22.419072,15.47580079,.0008194,44.9730,313.0923,282.2931,77.7042,0,U,62394,999,8187,.74212E-3,.38979E-3,0
TEVEL2-4,2025-052D,2026-06-07T15:52:08.882688,15.34277122,.0004354,97.3922,55.0407,120.1889,239.9786,0,U,63213,999,6865,.61719E-3,.20438E-3,0
TEVEL2-5,2025-052E,2026-06-07T16:20:08.839104,15.34110180,.000433,97.3908,55.0087,122.9986,237.1673,0,U,63214,999,6865,.60926E-3,.20067E-3,0
TEVEL2-6,2025-052F,2026-06-07T16:37:34.902048,15.34073106,.0004389,97.3913,55.0052,122.6209,237.5458,0,U,63215,999,6865,.57E-3,.18744E-3,0
TEVEL2-1,2025-052H,2026-06-07T15:40:43.658976,15.33551219,.000413,97.3886,54.6013,131.9709,228.1886,0,U,63217,999,6863,.57032E-3,.18446E-3,0
TEVEL2-3,2025-052J,2026-06-07T15:33:29.911968,15.33604146,.0004211,97.3888,54.6167,133.1501,227.0094,0,U,63218,999,6863,.57316E-3,.1857E-3,0
TEVEL2-2,2025-052K,2026-06-07T15:41:15.226080,15.33558797,.0004151,97.3887,54.6039,133.4602,226.6986,0,U,63219,999,6863,.56963E-3,.18428E-3,0
TEVEL2-9,2025-052AD,2026-06-07T16:25:12.134208,15.31608376,.000686,97.3948,54.0298,157.6841,202.4700,0,U,63237,999,6857,.54354E-3,.16541E-3,0
TEVEL2-7,2025-052AE,2026-06-07T15:47:25.140768,15.31319848,.0006944,97.3946,53.9238,158.9298,201.2231,0,U,63238,999,6856,.55376E-3,.16703E-3,0
TEVEL2-8,2025-052AF,2026-06-07T15:59:09.476160,15.31303224,.0007088,97.3959,53.9116,159.3996,200.7532,0,U,63239,999,6856,.55924E-3,.16862E-3,0
FORESAIL-1 PRIME,2025-276DS,2026-06-07T16:56:49.643232,15.18616677,.0003684,97.4198,232.1512,123.1787,236.9801,0,U,66778,999,2896,.26506E-3,.5419E-4,0
